1 25626U 99005A   12363.64101813  .00000124  00000-0  10000-3 0  9994
2 25626 000.0274 296.8061 0003374 335.2069 106.2546 01.00271494 50820
1 25626U 99005A   12365.06873265  .00000124  00000-0  10000-3 0  9999
2 25626 000.0248 300.1031 0003342 332.0038 261.5474 01.00272380 50834
1 25626U 99005A   12366.74104935  .00000124  00000-0  10000-3 0  9996
2 25626 000.0229 301.6029 0003296 330.1714 145.5655 01.00272941 50851
1 25626U 99005A   13003.19224301  .00000125  00000-0  10000-3 0  9995
2 25626 000.0563 269.0913 0003232 020.3107 292.7916 01.00274708 50875
1 25626U 99005A   13003.59742802  .00000000  00000-0  10000-3 0  9992
2 25626 000.0070 313.9118 0002884 313.9084 100.6963 01.00273944 50286
1 25626U 99005A   13003.81982538  .00000125  00000-0  10000-3 0  9997
2 25626 000.0551 269.2201 0003004 013.9504 165.5692 01.00272775 50881
1 25626U 99005A   13007.04975609  .00000120  00000-0  10000-3 0  9992
2 25626 000.0480 270.1438 0002979 021.2630 243.2731 01.00271542 50910
1 25626U 99005A   13008.12783522  .00000116  00000-0  10000-3 0  9998
2 25626 000.0461 270.5368 0002975 022.4438 270.8675 01.00271856 50922
1 25626U 99005A   13009.15500566  .00000112  00000-0  10000-3 0  9993
2 25626 000.0447 271.0549 0002834 026.1971 277.3857 01.00272071 50935
